{"type": "FeatureCollection", "features": [ {"type": "Feature", "properties": {"norad_id": 35744, "name": "IRIDIUM 33 DEB", "group": "iridium-33-debris", "lat": -59.133216602763056, "lon": -40.07694759629749, "alt_km": 668.3313112964088, "timestamp": "2025-12-11T07:02:24.115851+00:00", "meta": {"OBJECT_NAME": "IRIDIUM 33 DEB", "OBJECT_ID": "1997-051RX", "EPOCH": "2025-12-10T16:36:57.938400", "MEAN_MOTION": 14.70949157, "ECCENTRICITY": 0.00200944, "INCLINATION": 86.329, "RA_OF_ASC_NODE": 326.3608, "ARG_OF_PERICENTER": 199.977, "MEAN_ANOMALY": 160.0662, "EPHEMERIS_TYPE": 0, "CLASSIFICATION_TYPE": "U", "NORAD_CAT_ID": 35744, "ELEMENT_SET_NO": 999, "REV_AT_EPOCH": 87301, "BSTAR": 0.0019468967, "MEAN_MOTION_DOT": 0.00011996, "MEAN_MOTION_DDOT": 0}, "tle": {"line1": "1 35744U 97051RX  25344.69233725  .00011996  00000+0  19469-2 0  9996", "line2": "2 35744  86.3290 326.3608 0020094 199.9770 160.0662 14.70949157873015"}}, "geometry": {"type": "Point", "coordinates": [-40.07694759629749, -59.133216602763056]}}, {"type": "Feature", "properties": {"norad_id": 35797, "name": "IRIDIUM 33 DEB", "group": "iridium-33-debris", "lat": -32.71691301399526, "lon": -31.721304015993994, "alt_km": 636.123526049937, "timestamp": "2025-12-11T07:02:24.115861+00:00", "meta": {"OBJECT_NAME": "IRIDIUM 33 DEB", "OBJECT_ID": "1997-051SF", "EPOCH": "2025-12-09T16:18:47.257632", "MEAN_MOTION": 14.82622321, "ECCENTRICITY": 0.00129609, "INCLINATION": 86.3364, "RA_OF_ASC_NODE": 331.3786, "ARG_OF_PERICENTER": 157.766, "MEAN_ANOMALY": 202.4127, "EPHEMERIS_TYPE": 0, "CLASSIFICATION_TYPE": "U", "NORAD_CAT_ID": 35797, "ELEMENT_SET_NO": 999, "REV_AT_EPOCH": 87295, "BSTAR": 0.0027081228, "MEAN_MOTION_DOT": 0.00021904, "MEAN_MOTION_DDOT": 0}, "tle": {"line1": "1 35797U 97051SF  25343.67971363  .00021904  00000+0  27081-2 0  9997", "line2": "2 35797  86.3364 331.3786 0012960 157.7660 202.4127 14.82622321872954"}}, "geometry": {"type": "Point", "coordinates": [-31.721304015993994, -32.71691301399526]}}, {"type": "Feature", "properties": {"norad_id": 35806, "name": "IRIDIUM 33 DEB", "group": "iridium-33-debris", "lat": 45.00741055237014, "lon": 24.93211602746382, "alt_km": 688.6860222293926, "timestamp": "2025-12-11T07:02:24.115872+00:00", "meta": {"OBJECT_NAME": "IRIDIUM 33 DEB", "OBJECT_ID": "1997-051SQ", "EPOCH": "2025-12-10T20:56:47.285664", "MEAN_MOTION": 14.5731398, "ECCENTRICITY": 0.00160909, "INCLINATION": 86.344, "RA_OF_ASC_NODE": 21.4504, "ARG_OF_PERICENTER": 81.1516, "MEAN_ANOMALY": 279.1514, "EPHEMERIS_TYPE": 0, "CLASSIFICATION_TYPE": "U", "NORAD_CAT_ID": 35806, "ELEMENT_SET_NO": 999, "REV_AT_EPOCH": 86297, "BSTAR": 0.0016785418, "MEAN_MOTION_DOT": 7.632e-05, "MEAN_MOTION_DDOT": 0}, "tle": {"line1": "1 35806U 97051SQ  25344.87276951  .00007632  00000+0  16785-2 0  9993", "line2": "2 35806  86.3440  21.4504 0016090  81.1516 279.1514 14.57313980862975"}}, "geometry": {"type": "Point", "coordinates": [24.93211602746382, 45.00741055237014]}}, {"type": "Feature", "properties": {"norad_id": 35809, "name": "IRIDIUM 33 DEB", "group": "iridium-33-debris", "lat": -45.4869700094919, "lon": -27.73672277908568, "alt_km": 647.1070405221353, "timestamp": "2025-12-11T07:02:24.115882+00:00", "meta": {"OBJECT_NAME": "IRIDIUM 33 DEB", "OBJECT_ID": "1997-051ST", "EPOCH": "2025-12-10T16:35:56.421600", "MEAN_MOTION": 14.75629145, "ECCENTRICITY": 0.00097103, "INCLINATION": 86.329, "RA_OF_ASC_NODE": 336.2813, "ARG_OF_PERICENTER": 251.0565, "MEAN_ANOMALY": 108.9602, "EPHEMERIS_TYPE": 0, "CLASSIFICATION_TYPE": "U", "NORAD_CAT_ID": 35809, "ELEMENT_SET_NO": 999, "REV_AT_EPOCH": 86777, "BSTAR": 0.0026432017, "MEAN_MOTION_DOT": 0.00018102, "MEAN_MOTION_DDOT": 0}, "tle": {"line1": "1 35809U 97051ST  25344.69162525  .00018102  00000+0  26432-2 0  9991", "line2": "2 35809  86.3290 336.2813 0009710 251.0565 108.9602 14.75629145867777"}}, "geometry": {"type": "Point", "coordinates": [-27.73672277908568, -45.4869700094919]}}, {"type": "Feature", "properties": {"norad_id": 35846, "name": "IRIDIUM 33 DEB", "group": "iridium-33-debris", "lat": -83.79895515464426, "lon": -84.8460572449823, "alt_km": 755.599905073107, "timestamp": "2025-12-11T07:02:24.115893+00:00", "meta": {"OBJECT_NAME": "IRIDIUM 33 DEB", "OBJECT_ID": "1997-051SW", "EPOCH": "2025-12-10T23:09:37.939680", "MEAN_MOTION": 14.43148066, "ECCENTRICITY": 0.00186488, "INCLINATION": 86.3748, "RA_OF_ASC_NODE": 59.598, "ARG_OF_PERICENTER": 175.7823, "MEAN_ANOMALY": 184.3539, "EPHEMERIS_TYPE": 0, "CLASSIFICATION_TYPE": "U", "NORAD_CAT_ID": 35846, "ELEMENT_SET_NO": 999, "REV_AT_EPOCH": 71303, "BSTAR": 0.00091839072, "MEAN_MOTION_DOT": 3.109e-05, "MEAN_MOTION_DDOT": 0}, "tle": {"line1": "1 35846U 97051SW  25344.96502245  .00003109  00000+0  91839-3 0  9994", "line2": "2 35846  86.3748  59.5980 0018648 175.7823 184.3539 14.43148066713034"}}, "geometry": {"type": "Point", "coordinates": [-84.8460572449823, -83.79895515464426]}}, {"type": "Feature", "properties": {"norad_id": 35848, "name": "IRIDIUM 33 DEB", "group": "iridium-33-debris", "lat": -71.44837282258567, "lon": -152.38476398535545, "alt_km": 638.3004603069494, "timestamp": "2025-12-11T07:02:24.115903+00:00", "meta": {"OBJECT_NAME": "IRIDIUM 33 DEB", "OBJECT_ID": "1997-051SY", "EPOCH": "2025-12-10T20:09:33.946272", "MEAN_MOTION": 14.78567105, "ECCENTRICITY": 0.00074833, "INCLINATION": 86.391, "RA_OF_ASC_NODE": 16.979, "ARG_OF_PERICENTER": 196.6944, "MEAN_ANOMALY": 163.4031, "EPHEMERIS_TYPE": 0, "CLASSIFICATION_TYPE": "U", "NORAD_CAT_ID": 35848, "ELEMENT_SET_NO": 999, "REV_AT_EPOCH": 66662, "BSTAR": 0.002426624, "MEAN_MOTION_DOT": 0.00017798, "MEAN_MOTION_DDOT": 0}, "tle": {"line1": "1 35848U 97051SY  25344.83997623  .00017798  00000+0  24266-2 0  9998", "line2": "2 35848  86.3910  16.9790 0007483 196.6944 163.4031 14.78567105666628"}}, "geometry": {"type": "Point", "coordinates": [-152.38476398535545, -71.44837282258567]}}, {"type": "Feature", "properties": {"norad_id": 35850, "name": "IRIDIUM 33 DEB", "group": "iridium-33-debris", "lat": -36.38617958990348, "lon": 167.60123861372304, "alt_km": 634.130804818702, "timestamp": "2025-12-11T07:02:24.115913+00:00", "meta": {"OBJECT_NAME": "IRIDIUM 33 DEB", "OBJECT_ID": "1997-051TA", "EPOCH": "2025-12-06T07:30:15.621984", "MEAN_MOTION": 14.78601393, "ECCENTRICITY": 0.00083892, "INCLINATION": 86.3487, "RA_OF_ASC_NODE": 347.1693, "ARG_OF_PERICENTER": 210.267, "MEAN_ANOMALY": 149.8067, "EPHEMERIS_TYPE": 0, "CLASSIFICATION_TYPE": "U", "NORAD_CAT_ID": 35850, "ELEMENT_SET_NO": 999, "REV_AT_EPOCH": 71262, "BSTAR": 0.0028291764, "MEAN_MOTION_DOT": 0.00020775, "MEAN_MOTION_DDOT": 0}, "tle": {"line1": "1 35850U 97051TA  25340.31268081  .00020775  00000+0  28292-2 0  9991", "line2": "2 35850  86.3487 347.1693 0008389 210.2670 149.8067 14.78601393712623"}}, "geometry": {"type": "Point", "coordinates": [167.60123861372304, -36.38617958990348]}}, {"type": "Feature", "properties": {"norad_id": 35915, "name": "IRIDIUM 33 DEB", "group": "iridium-33-debris", "lat": 33.857132700171846, "lon": 161.1592737765364, "alt_km": 620.259490391596, "timestamp": "2025-12-11T07:02:24.115924+00:00", "meta": {"OBJECT_NAME": "IRIDIUM 33 DEB", "OBJECT_ID": "1997-051TY", "EPOCH": "2025-12-07T18:02:16.498176", "MEAN_MOTION": 14.80542095, "ECCENTRICITY": 0.00101746, "INCLINATION": 86.3429, "RA_OF_ASC_NODE": 345.2367, "ARG_OF_PERICENTER": 205.9072, "MEAN_ANOMALY": 154.1641, "EPHEMERIS_TYPE": 0, "CLASSIFICATION_TYPE": "U", "NORAD_CAT_ID": 35915, "ELEMENT_SET_NO": 999, "REV_AT_EPOCH": 8012, "BSTAR": 0.0030076362, "MEAN_MOTION_DOT": 0.00023136, "MEAN_MOTION_DDOT": 0}, "tle": {"line1": "1 35915U 97051TY  25341.75157984  .00023136  00000+0  30076-2 0  9998", "line2": "2 35915  86.3429 345.2367 0010174 205.9072 154.1641 14.80542095 80126"}}, "geometry": {"type": "Point", "coordinates": [161.1592737765364, 33.857132700171846]}}, {"type": "Feature", "properties": {"norad_id": 35918, "name": "IRIDIUM 33 DEB", "group": "iridium-33-debris", "lat": 84.927542684924, "lon": -148.731805980836, "alt_km": 710.9929223044646, "timestamp": "2025-12-11T07:02:24.115937+00:00", "meta": {"OBJECT_NAME": "IRIDIUM 33 DEB", "OBJECT_ID": "1997-051UB", "EPOCH": "2025-12-09T13:18:26.589888", "MEAN_MOTION": 14.51197516, "ECCENTRICITY": 0.0027351, "INCLINATION": 86.4004, "RA_OF_ASC_NODE": 77.1826, "ARG_OF_PERICENTER": 180.0208, "MEAN_ANOMALY": 195.2602, "EPHEMERIS_TYPE": 0, "CLASSIFICATION_TYPE": "U", "NORAD_CAT_ID": 35918, "ELEMENT_SET_NO": 999, "REV_AT_EPOCH": 85161, "BSTAR": 0.0018636, "MEAN_MOTION_DOT": 7.457e-05, "MEAN_MOTION_DDOT": 0}, "tle": {"line1": "1 35918U 97051UB  25343.55447442  .00007457  00000+0  18636-2 0  9998", "line2": "2 35918  86.4004  77.1826 0027351 180.0208 195.2602 14.51197516851614"}}, "geometry": {"type": "Point", "coordinates": [-148.731805980836, 84.927542684924]}}, {"type": "Feature", "properties": {"norad_id": 35929, "name": "IRIDIUM 33 DEB", "group": "iridium-33-debris", "lat": -60.90708818814198, "lon": -53.301214618943526, "alt_km": 569.8784395662196, "timestamp": "2025-12-11T07:02:24.115951+00:00", "meta": {"OBJECT_NAME": "IRIDIUM 33 DEB", "OBJECT_ID": "1997-051UN", "EPOCH": "2025-12-10T04:07:57.675648", "MEAN_MOTION": 15.02123789, "ECCENTRICITY": 0.00184888, "INCLINATION": 86.3336, "RA_OF_ASC_NODE": 313.8473, "ARG_OF_PERICENTER": 44.9144, "MEAN_ANOMALY": 315.3582, "EPHEMERIS_TYPE": 0, "CLASSIFICATION_TYPE": "U", "NORAD_CAT_ID": 35929, "ELEMENT_SET_NO": 999, "REV_AT_EPOCH": 87741, "BSTAR": 0.0038329706, "MEAN_MOTION_DOT": 0.00050875, "MEAN_MOTION_DDOT": 0}, "tle": {"line1": "1 35929U 97051UN  25344.17219532  .00050875  00000+0  38330-2 0  9991", "line2": "2 35929  86.3336 313.8473 0018488  44.9144 315.3582 15.02123789877415"}}, "geometry": {"type": "Point", "coordinates": [-53.301214618943526, -60.90708818814198]}}]}